[{"OBJECT_NAME":"CUTE-1.7+APD II (CO-65)","OBJECT_ID":"2008-021C","EPOCH":"2026-03-28T13:14:47.533056","MEAN_MOTION":15.08625155,"ECCENTRICITY":0.00076741,"INCLINATION":97.8225,"RA_OF_ASC_NODE":67.3684,"ARG_OF_PERICENTER":311.5139,"MEAN_ANOMALY":48.5429,"EPHEMERIS_TYPE":0,"CLASSIFICATION_TYPE":"U","NORAD_CAT_ID":32785,"ELEMENT_SET_NO":999,"REV_AT_EPOCH":97303,"BSTAR":0.00051406529,"MEAN_MOTION_DOT":7.986e-5,"MEAN_MOTION_DDOT":0},{"OBJECT_NAME":"SEEDS II (CO-66)","OBJECT_ID":"2008-021J","EPOCH":"2026-03-28T12:01:52.460832","MEAN_MOTION":15.2986394,"ECCENTRICITY":0.0001837,"INCLINATION":97.7522,"RA_OF_ASC_NODE":81.7278,"ARG_OF_PERICENTER":175.4551,"MEAN_ANOMALY":184.6705,"EPHEMERIS_TYPE":0,"CLASSIFICATION_TYPE":"U","NORAD_CAT_ID":32791,"ELEMENT_SET_NO":999,"REV_AT_EPOCH":97494,"BSTAR":0.00078688,"MEAN_MOTION_DOT":0.0002272,"MEAN_MOTION_DDOT":0},{"OBJECT_NAME":"YUBILEINY (RS30)","OBJECT_ID":"2008-025A","EPOCH":"2026-03-28T14:53:13.577856","MEAN_MOTION":12.43177052,"ECCENTRICITY":0.00201988,"INCLINATION":82.5033,"RA_OF_ASC_NODE":45.5443,"ARG_OF_PERICENTER":124.6138,"MEAN_ANOMALY":235.6851,"EPHEMERIS_TYPE":0,"CLASSIFICATION_TYPE":"U","NORAD_CAT_ID":32953,"ELEMENT_SET_NO":999,"REV_AT_EPOCH":80968,"BSTAR":0.00078850852,"MEAN_MOTION_DOT":1.2e-6,"MEAN_MOTION_DDOT":0},{"OBJECT_NAME":"KKS-1 (KISEKI)","OBJECT_ID":"2009-002H","EPOCH":"2026-03-28T11:50:54.154176","MEAN_MOTION":14.82896485,"ECCENTRICITY":0.0007592,"INCLINATION":98.1185,"RA_OF_ASC_NODE":8.6756,"ARG_OF_PERICENTER":181.8804,"MEAN_ANOMALY":178.2382,"EPHEMERIS_TYPE":0,"CLASSIFICATION_TYPE":"U","NORAD_CAT_ID":33499,"ELEMENT_SET_NO":999,"REV_AT_EPOCH":92423,"BSTAR":0.00021486,"MEAN_MOTION_DOT":1.687e-5,"MEAN_MOTION_DDOT":0},{"OBJECT_NAME":"SWISSCUBE","OBJECT_ID":"2009-051B","EPOCH":"2026-03-28T12:00:09.453024","MEAN_MOTION":14.62308998,"ECCENTRICITY":0.0008011,"INCLINATION":98.4083,"RA_OF_ASC_NODE":353.9755,"ARG_OF_PERICENTER":100.7792,"MEAN_ANOMALY":259.4311,"EPHEMERIS_TYPE":0,"CLASSIFICATION_TYPE":"U","NORAD_CAT_ID":35932,"ELEMENT_SET_NO":999,"REV_AT_EPOCH":87736,"BSTAR":0.00025339,"MEAN_MOTION_DOT":1.23e-5,"MEAN_MOTION_DDOT":0},{"OBJECT_NAME":"BEESAT-1","OBJECT_ID":"2009-051C","EPOCH":"2026-03-28T06:18:31.224096","MEAN_MOTION":14.61574631,"ECCENTRICITY":0.0006339,"INCLINATION":98.4013,"RA_OF_ASC_NODE":353.5367,"ARG_OF_PERICENTER":112.3505,"MEAN_ANOMALY":247.8368,"EPHEMERIS_TYPE":0,"CLASSIFICATION_TYPE":"U","NORAD_CAT_ID":35933,"ELEMENT_SET_NO":999,"REV_AT_EPOCH":87736,"BSTAR":0.00022305,"MEAN_MOTION_DOT":1.059e-5,"MEAN_MOTION_DDOT":0},{"OBJECT_NAME":"ITUPSAT1","OBJECT_ID":"2009-051E","EPOCH":"2026-03-28T10:58:28.604928","MEAN_MOTION":14.60306403,"ECCENTRICITY":0.00084137,"INCLINATION":98.41,"RA_OF_ASC_NODE":353.01,"ARG_OF_PERICENTER":123.1733,"MEAN_ANOMALY":237.0275,"EPHEMERIS_TYPE":0,"CLASSIFICATION_TYPE":"U","NORAD_CAT_ID":35935,"ELEMENT_SET_NO":999,"REV_AT_EPOCH":87695,"BSTAR":0.00020866164,"MEAN_MOTION_DOT":9.6e-6,"MEAN_MOTION_DDOT":0},{"OBJECT_NAME":"XIWANG-1 (HOPE-1)","OBJECT_ID":"2009-072B","EPOCH":"2026-03-28T14:36:40.574016","MEAN_MOTION":13.16437951,"ECCENTRICITY":0.00081201,"INCLINATION":100.3943,"RA_OF_ASC_NODE":42.7578,"ARG_OF_PERICENTER":59.9319,"MEAN_ANOMALY":300.2598,"EPHEMERIS_TYPE":0,"CLASSIFICATION_TYPE":"U","NORAD_CAT_ID":36122,"ELEMENT_SET_NO":999,"REV_AT_EPOCH":78240,"BSTAR":0.0009113524,"MEAN_MOTION_DOT":3.04e-6,"MEAN_MOTION_DDOT":0},{"OBJECT_NAME":"O/OREOS (USA 219)","OBJECT_ID":"2010-062C","EPOCH":"2026-03-28T13:19:47.720352","MEAN_MOTION":14.93379266,"ECCENTRICITY":0.00161893,"INCLINATION":71.9691,"RA_OF_ASC_NODE":262.9325,"ARG_OF_PERICENTER":224.7512,"MEAN_ANOMALY":135.2354,"EPHEMERIS_TYPE":0,"CLASSIFICATION_TYPE":"U","NORAD_CAT_ID":37224,"ELEMENT_SET_NO":999,"REV_AT_EPOCH":10460,"BSTAR":0.00030150605,"MEAN_MOTION_DOT":3.112e-5,"MEAN_MOTION_DDOT":0},{"OBJECT_NAME":"JUGNU","OBJECT_ID":"2011-058B","EPOCH":"2026-03-28T03:08:18.597984","MEAN_MOTION":14.13748391,"ECCENTRICITY":0.001835,"INCLINATION":19.9609,"RA_OF_ASC_NODE":80.8611,"ARG_OF_PERICENTER":261.0916,"MEAN_ANOMALY":167.5824,"EPHEMERIS_TYPE":0,"CLASSIFICATION_TYPE":"U","NORAD_CAT_ID":37839,"ELEMENT_SET_NO":999,"REV_AT_EPOCH":74754,"BSTAR":9.7636432e-5,"MEAN_MOTION_DOT":4.54e-6,"MEAN_MOTION_DDOT":0},{"OBJECT_NAME":"SRMSAT","OBJECT_ID":"2011-058D","EPOCH":"2026-03-28T15:03:09.076032","MEAN_MOTION":14.11554455,"ECCENTRICITY":0.00119142,"INCLINATION":19.9709,"RA_OF_ASC_NODE":187.0799,"ARG_OF_PERICENTER":37.8808,"MEAN_ANOMALY":350.3563,"EPHEMERIS_TYPE":0,"CLASSIFICATION_TYPE":"U","NORAD_CAT_ID":37841,"ELEMENT_SET_NO":999,"REV_AT_EPOCH":74642,"BSTAR":8.4528021e-5,"MEAN_MOTION_DOT":4.21e-6,"MEAN_MOTION_DDOT":0},{"OBJECT_NAME":"STRAND-1","OBJECT_ID":"2013-009E","EPOCH":"2026-03-28T12:03:17.919072","MEAN_MOTION":14.37110348,"ECCENTRICITY":0.0009785,"INCLINATION":98.3903,"RA_OF_ASC_NODE":269.7275,"ARG_OF_PERICENTER":110.2175,"MEAN_ANOMALY":250.0065,"EPHEMERIS_TYPE":0,"CLASSIFICATION_TYPE":"U","NORAD_CAT_ID":39090,"ELEMENT_SET_NO":999,"REV_AT_EPOCH":68547,"BSTAR":0.00013934,"MEAN_MOTION_DOT":3.71e-6,"MEAN_MOTION_DDOT":0},{"OBJECT_NAME":"ZACUBE-1 (TSHEPISOSAT)","OBJECT_ID":"2013-066B","EPOCH":"2026-03-28T14:28:55.317792","MEAN_MOTION":15.00491751,"ECCENTRICITY":0.00445732,"INCLINATION":97.8138,"RA_OF_ASC_NODE":49.519,"ARG_OF_PERICENTER":158.1982,"MEAN_ANOMALY":202.1152,"EPHEMERIS_TYPE":0,"CLASSIFICATION_TYPE":"U","NORAD_CAT_ID":39417,"ELEMENT_SET_NO":999,"REV_AT_EPOCH":66864,"BSTAR":0.00037977004,"MEAN_MOTION_DOT":4.822e-5,"MEAN_MOTION_DDOT":0},{"OBJECT_NAME":"GOMX-1","OBJECT_ID":"2013-066Q","EPOCH":"2026-03-28T13:18:23.534784","MEAN_MOTION":14.69166832,"ECCENTRICITY":0.01287946,"INCLINATION":97.6558,"RA_OF_ASC_NODE":293.0826,"ARG_OF_PERICENTER":337.1059,"MEAN_ANOMALY":22.4437,"EPHEMERIS_TYPE":0,"CLASSIFICATION_TYPE":"U","NORAD_CAT_ID":39430,"ELEMENT_SET_NO":999,"REV_AT_EPOCH":65807,"BSTAR":0.00024815247,"MEAN_MOTION_DOT":1.605e-5,"MEAN_MOTION_DDOT":0},{"OBJECT_NAME":"CUBEBUG-2 (LO-74)","OBJECT_ID":"2013-066AA","EPOCH":"2026-03-28T14:18:57.777120","MEAN_MOTION":14.93163948,"ECCENTRICITY":0.00567056,"INCLINATION":97.8832,"RA_OF_ASC_NODE":36.3045,"ARG_OF_PERICENTER":295.4944,"MEAN_ANOMALY":64.0417,"EPHEMERIS_TYPE":0,"CLASSIFICATION_TYPE":"U","NORAD_CAT_ID":39440,"ELEMENT_SET_NO":999,"REV_AT_EPOCH":66496,"BSTAR":0.00055576276,"MEAN_MOTION_DOT":5.925e-5,"MEAN_MOTION_DDOT":0},{"OBJECT_NAME":"FUNCUBE-1 (AO-73)","OBJECT_ID":"2013-066AE","EPOCH":"2026-03-28T10:02:41.788608","MEAN_MOTION":15.08233066,"ECCENTRICITY":0.00389178,"INCLINATION":97.8204,"RA_OF_ASC_NODE":57.2827,"ARG_OF_PERICENTER":117.0629,"MEAN_ANOMALY":243.4578,"EPHEMERIS_TYPE":0,"CLASSIFICATION_TYPE":"U","NORAD_CAT_ID":39444,"ELEMENT_SET_NO":999,"REV_AT_EPOCH":66748,"BSTAR":0.00058287548,"MEAN_MOTION_DOT":9.121e-5,"MEAN_MOTION_DDOT":0}]
