CUTE-1.7+APD II (CO-65) 
1 32785U 08021C   26087.55193904  .00007986  00000+0  51407-3 0  9994
2 32785  97.8225  67.3684 0007674 311.5139  48.5429 15.08625155973033
SEEDS II (CO-66)        
1 32791U 08021J   26087.50130163  .00022720  00000+0  78688-3 0  9997
2 32791  97.7522  81.7278 0001837 175.4551 184.6705 15.29863940974947
YUBILEINY (RS30)        
1 32953U 08025A   26087.62029604  .00000120  00000+0  78851-3 0  9993
2 32953  82.5033  45.5443 0020198 124.6138 235.6851 12.43177052809688
KKS-1 (KISEKI)          
1 33499U 09002H   26087.49368234  .00001687  00000+0  21486-3 0  9996
2 33499  98.1185   8.6756 0007592 181.8804 178.2382 14.82896485924233
SWISSCUBE               
1 35932U 09051B   26087.50010941  .00001230  00000+0  25339-3 0  9990
2 35932  98.4083 353.9755 0008011 100.7792 259.4311 14.62308998877365
BEESAT-1                
1 35933U 09051C   26087.26286139  .00001059  00000+0  22305-3 0  9997
2 35933  98.4013 353.5367 0006339 112.3505 247.8368 14.61574631877367
ITUPSAT1                
1 35935U 09051E   26087.45727552  .00000960  00000+0  20866-3 0  9999
2 35935  98.4100 353.0100 0008413 123.1733 237.0275 14.60306403876955
XIWANG-1 (HOPE-1)       
1 36122U 09072B   26087.60880294  .00000304  00000+0  91135-3 0  9990
2 36122 100.3943  42.7578 0008120  59.9319 300.2598 13.16437951782404
O/OREOS (USA 219)       
1 37224U 10062C   26087.55541343  .00003112  00000+0  30151-3 0  9999
2 37224  71.9691 262.9325 0016189 224.7512 135.2354 14.93379266104604
JUGNU                   
1 37839U 11058B   26087.13077081  .00000454  00000+0  97636-4 0  9992
2 37839  19.9609  80.8611 0018350 261.0916 167.5824 14.13748391747543
SRMSAT                  
1 37841U 11058D   26087.62718838  .00000421  00000+0  84528-4 0  9991
2 37841  19.9709 187.0799 0011914  37.8808 350.3563 14.11554455746424
STRAND-1                
1 39090U 13009E   26087.50229073  .00000371  00000+0  13934-3 0  9998
2 39090  98.3903 269.7275 0009785 110.2175 250.0065 14.37110348685479
ZACUBE-1 (TSHEPISOSAT)  
1 39417U 13066B   26087.60341803  .00004822  00000+0  37977-3 0  9999
2 39417  97.8138  49.5190 0044573 158.1982 202.1152 15.00491751668643
GOMX-1                  
1 39430U 13066Q   26087.55443906  .00001605  00000+0  24815-3 0  9998
2 39430  97.6558 293.0826 0128794 337.1059  22.4437 14.69166832658074
CUBEBUG-2 (LO-74)       
1 39440U 13066AA  26087.59650205  .00005925  00000+0  55576-3 0  9992
2 39440  97.8832  36.3045 0056705 295.4944  64.0417 14.93163948664961
FUNCUBE-1 (AO-73)       
1 39444U 13066AE  26087.41853922  .00009121  00000+0  58288-3 0  9993
2 39444  97.8204  57.2827 0038917 117.0629 243.4578 15.08233066667489
